[
  {
    "userId": "demo",
    "id":1,
    "caseName":"Case1", 
    "activityType":"Visit", 
    "expectedDuration": 25, 
    "address":"325 S Orange Ave", 
    "city": "Orlando", 
    "state": "FL",
    "zipCode": "32801",
    "coordinates": [28.53874, -81.37861],
    "completed": false
  },
  {
    "userId": "demo",
    "id":2,
    "caseName":"Case2", 
    "activityType":"Court Date", 
    "expectedDuration": 120, 
    "address":"125 W Church St", 
    "city": "Orlando", 
    "state": "FL",
    "zipCode": "32801",
    "coordinates": [28.54052, -81.38118],
    "completed": false
  },
  {
    "userId": "demo",
    "id":3,
    "caseName":"Case3", 
    "activityType":"Court Date", 
    "expectedDuration": 100, 
    "address":"1710 Edgewater Dr", 
    "city": "Orlando", 
    "state": "FL",
    "zipCode": "32804",
    "coordinates": [28.56707, -81.38971],
    "completed": false
  },
  {
    "userId": "demo",
    "id":4,
    "caseName":"Case1", 
    "activityType":"Pickup Paperwork", 
    "expectedDuration": 45, 
    "address":"8005 International Dr", 
    "city": "Orlando", 
    "state": "FL",
    "zipCode": "32819",
    "coordinates": [28.4497135606058, -81.4707795871383],
    "completed": false
  },
  {
    "userId": "demo",
    "id":5,
    "caseName":"Case1", 
    "activityType":"Doctor's Appointment", 
    "expectedDuration": 75, 
    "address":"301 E Pine St", 
    "city": "Orlando", 
    "state": "FL",
    "zipCode": "32801",
    "coordinates": [28.5414049683169, -81.37367],
    "completed": false
  },
  {
    "userId": "demo",
    "id":6,
    "caseName":"Case3", 
    "activityType":"Assessment", 
    "expectedDuration": 90, 
    "address":"4012 Central Florida Pkwy", 
    "city": "Orlando", 
    "state": "FL",
    "zipCode": "32819",
    "coordinates": [28.404738, -81.428915],
    "completed": false
  },
  {
    "userId": "demo2",
    "id":1,
    "caseName":"Case1", 
    "activityType":"Visit", 
    "expectedDuration": 25, 
    "address":"325 S Orange Ave", 
    "city": "Orlando", 
    "state": "FL",
    "zipCode": "32801",
    "coordinates": [28.53874, -81.37861],
    "completed": false
  },
  {
    "userId": "demo2",
    "id":2,
    "caseName":"Case2", 
    "activityType":"Court Date", 
    "expectedDuration": 120, 
    "address":"125 W Church St", 
    "city": "Orlando", 
    "state": "FL",
    "zipCode": "32801",
    "coordinates": [28.54052, -81.38118],
    "completed": false
  },
  {
    "userId": "demo2",
    "id":3,
    "caseName":"Case3", 
    "activityType":"Court Date", 
    "expectedDuration": 100, 
    "address":"1710 Edgewater Dr", 
    "city": "Orlando", 
    "state": "FL",
    "zipCode": "32804",
    "coordinates": [28.56707, -81.38971],
    "completed": false
  },
  {
    "userId": "demo2",
    "id":4,
    "caseName":"Case1", 
    "activityType":"Pickup Paperwork", 
    "expectedDuration": 45, 
    "address":"8005 International Dr", 
    "city": "Orlando", 
    "state": "FL",
    "zipCode": "32819",
    "coordinates": [28.4497135606058, -81.4707795871383],
    "completed": false
  },
  {
    "userId": "demo2",
    "id":5,
    "caseName":"Case1", 
    "activityType":"Doctor's Appointment", 
    "expectedDuration": 75, 
    "address":"301 E Pine St", 
    "city": "Orlando", 
    "state": "FL",
    "zipCode": "32801",
    "coordinates": [28.5414049683169, -81.37367],
    "completed": false
  },
  {
    "userId": "demo2",
    "id":6,
    "caseName":"Case3", 
    "activityType":"Assessment", 
    "expectedDuration": 90, 
    "address":"4012 Central Florida Pkwy", 
    "city": "Orlando", 
    "state": "FL",
    "zipCode": "32819",
    "coordinates": [28.404738, -81.428915],
    "completed": false
  },
  {
    "userId": "demo2",
    "id":7,
    "caseName":"Case4", 
    "activityType":"Assessment", 
    "expectedDuration": 90, 
    "address":"1062 Montgomery Rd", 
    "city": "Altamonte Springs", 
    "state": "FL",
    "zipCode": "32714",
    "coordinates": [28.6856308281219, -81.4028615266183],
    "completed": false
  },
  {
    "userId": "demo2",
    "id":8,
    "caseName":"Case4", 
    "activityType":"Paperwork Pickup", 
    "expectedDuration": 30, 
    "address":"260 Douglas Ave", 
    "city": "Altamonte Springs", 
    "state": "FL",
    "zipCode": "32714",
    "coordinates": [28.66422, -81.39103],
    "completed": false
  }
]